GPS BIIR-2  (PRN 13)    
1 24876U 97035A   26094.41177889  .00000015  00000+0  00000+0 0  9991
2 24876  55.9542 101.4579 0098969  56.1420 304.8226  2.00564009210470
GPS BIIR-5  (PRN 22)    
1 26407U 00040A   26093.74379900 -.00000004  00000+0  00000+0 0  9995
2 26407  54.8679 218.1175 0122135 302.5142 229.9650  2.00569330188453
GPS BIIR-8  (PRN 16)    
1 27663U 03005A   26094.32949974  .00000001  00000+0  00000+0 0  9999
2 27663  54.8990 217.9019 0148465  52.8884 318.0037  2.00564623169830
GPS BIIR-11 (PRN 19)    
1 28190U 04009A   26093.34366605 -.00000035  00000+0  00000+0 0  9993
2 28190  54.8926 278.7093 0112444 169.9755   4.1137  2.00557195161446
GPS BIIR-13 (PRN 02)    
1 28474U 04045A   26093.75761573 -.00000086  00000+0  00000+0 0  9992
2 28474  55.1778 327.8951 0170365 313.9861 224.1146  2.00575016156938
GPS BIIRM-1 (PRN 17)    
1 28874U 05038A   26093.81476866 -.00000030  00000+0  00000+0 0  9993
2 28874  54.9397 276.1770 0128091 295.6947 243.8966  2.00570956150346
GPS BIIRM-2 (PRN 31)    
1 29486U 06042A   26094.22327289  .00000030  00000+0  00000+0 0  9998
2 29486  54.6997 154.2762 0106286  53.1959 318.7314  2.00573948142915
GPS BIIRM-3 (PRN 12)    
1 29601U 06052A   26093.62874480 -.00000004  00000+0  00000+0 0  9993
2 29601  54.9497 216.9603 0087104  89.9060 271.0674  2.00553741141917
GPS BIIRM-4 (PRN 15)    
1 32260U 07047A   26093.93432213 -.00000014  00000+0  00000+0 0  9992
2 32260  54.0407  83.1242 0164079  86.2343 275.6386  2.00559174135322
GPS BIIRM-5 (PRN 29)    
1 32384U 07062A   26094.00172139 -.00000030  00000+0  00000+0 0  9991
2 32384  55.0918 277.1328 0033881 161.3217  14.6689  2.00555539134022
GPS BIIRM-6 (PRN 07)    
1 32711U 08012A   26094.34975058  .00000029  00000+0  00000+0 0  9996
2 32711  54.4848 152.8753 0208692 246.7317 111.1368  2.00570366132272
GPS BIIRM-8 (PRN 05)    
1 35752U 09043A   26093.84521170 -.00000095  00000+0  00000+0 0  9999
2 35752  56.1669  30.3721 0052435  80.8995 289.3444  2.00558580121877
GPS BIIF-1  (PRN 25)    
1 36585U 10022A   26094.67072971  .00000005  00000+0  00000+0 0  9995
2 36585  54.2821 211.5226 0126965  66.0315 297.1445  2.00558864116121
GPS BIIF-3  (PRN 24)    
1 38833U 12053A   26094.52832240  .00000028  00000+0  00000+0 0  9991
2 38833  53.5701 146.6177 0177408  64.9799 296.9355  2.00566337 97963
GPS BIIF-4  (PRN 27)    
1 39166U 13023A   26090.90349851 -.00000034  00000+0  00000+0 0  9996
2 39166  54.5658 272.1198 0141962  50.3418 310.8851  2.00563989 94331
GPS BIIF-5  (PRN 30)    
1 39533U 14008A   26093.39631494  .00000034  00000+0  00000+0 0  9990
2 39533  53.6404 152.3712 0083264 229.3793 129.9742  2.00555066 88184
GPS BIIF-6  (PRN 06)    
1 39741U 14026A   26094.17145429 -.00000090  00000+0  00000+0 0  9999
2 39741  56.5319 334.4006 0039371 326.0604  33.7376  2.00566566 87054
